[
  {
    "OBJECT_NAME": "STARLINK-6073",
    "OBJECT_ID": "23078AS",
    "EPOCH": "2025-11-11T07:07:15.605760",
    "MEAN_MOTION": 14.98274389,
    "ECCENTRICITY": 0.0001017,
    "INCLINATION": 70.0029,
    "RA_OF_ASC_NODE": 262.7916,
    "ARG_OF_PERICENTER": 256.4809,
    "MEAN_ANOMALY": 103.6236,
    "EPHEMERIS_TYPE": 0,
    "CLASSIFICATION_TYPE": "U",
    "NORAD_CAT_ID": 56807,
    "ELEMENT_SET_NO": 999,
    "REV_AT_EPOCH": 13544,
    "BSTAR": 0.0,
    "MEAN_MOTION_DOT": -0.00018913,
    "MEAN_MOTION_DDOT": 0.0,
    "TLE_LINE1": "1 56807U 23078AS  25315.29670840 -.00018913  00000+0 -15840-2 0  9991",
    "TLE_LINE2": "2 56807  70.0029 262.7916 0001017 256.4809 103.6236 14.98274389135445",
    "COMMENT": "Grouped by shell and plane from TLE"
  },
  {
    "OBJECT_NAME": "STARLINK-6065",
    "OBJECT_ID": "23078AX",
    "EPOCH": "2025-11-11T05:43:23.372544",
    "MEAN_MOTION": 14.98334371,
    "ECCENTRICITY": 0.0002862,
    "INCLINATION": 69.9993,
    "RA_OF_ASC_NODE": 262.9937,
    "ARG_OF_PERICENTER": 265.1203,
    "MEAN_ANOMALY": 94.9629,
    "EPHEMERIS_TYPE": 0,
    "CLASSIFICATION_TYPE": "U",
    "NORAD_CAT_ID": 56812,
    "ELEMENT_SET_NO": 999,
    "REV_AT_EPOCH": 13543,
    "BSTAR": 0.00017005999999999998,
    "MEAN_MOTION_DOT": 1.937e-05,
    "MEAN_MOTION_DDOT": 0.0,
    "TLE_LINE1": "1 56812U 23078AX  25315.23846496  .00001937  00000+0  17006-3 0  9996",
    "TLE_LINE2": "2 56812  69.9993 262.9937 0002862 265.1203  94.9629 14.98334371135432",
    "COMMENT": "Grouped by shell and plane from TLE"
  },
  {
    "OBJECT_NAME": "STARLINK-6067",
    "OBJECT_ID": "23078BB",
    "EPOCH": "2025-11-11T07:01:15.011904",
    "MEAN_MOTION": 14.98334768,
    "ECCENTRICITY": 0.000302,
    "INCLINATION": 69.9996,
    "RA_OF_ASC_NODE": 262.7757,
    "ARG_OF_PERICENTER": 272.3408,
    "MEAN_ANOMALY": 87.7405,
    "EPHEMERIS_TYPE": 0,
    "CLASSIFICATION_TYPE": "U",
    "NORAD_CAT_ID": 56816,
    "ELEMENT_SET_NO": 999,
    "REV_AT_EPOCH": 13544,
    "BSTAR": 0.00023125,
    "MEAN_MOTION_DOT": 2.668e-05,
    "MEAN_MOTION_DDOT": 0.0,
    "TLE_LINE1": "1 56816U 23078BB  25315.29253486  .00002668  00000+0  23125-3 0  9998",
    "TLE_LINE2": "2 56816  69.9996 262.7757 0003020 272.3408  87.7405 14.98334768135444",
    "COMMENT": "Grouped by shell and plane from TLE"
  },
  {
    "OBJECT_NAME": "STARLINK-5808",
    "OBJECT_ID": "23083BD",
    "EPOCH": "2025-11-11T05:44:43.400544",
    "MEAN_MOTION": 15.02542295,
    "ECCENTRICITY": 0.0001043,
    "INCLINATION": 43.0036,
    "RA_OF_ASC_NODE": 262.8401,
    "ARG_OF_PERICENTER": 273.8461,
    "MEAN_ANOMALY": 86.2262,
    "EPHEMERIS_TYPE": 0,
    "CLASSIFICATION_TYPE": "U",
    "NORAD_CAT_ID": 56927,
    "ELEMENT_SET_NO": 999,
    "REV_AT_EPOCH": 13503,
    "BSTAR": 0.00011967999999999999,
    "MEAN_MOTION_DOT": 1.414e-05,
    "MEAN_MOTION_DDOT": 0.0,
    "TLE_LINE1": "1 56927U 23083BD  25315.23939121  .00001414  00000+0  11968-3 0  9998",
    "TLE_LINE2": "2 56927  43.0036 262.8401 0001043 273.8461  86.2262 15.02542295135032",
    "COMMENT": "Grouped by shell and plane from TLE"
  },
  {
    "OBJECT_NAME": "STARLINK-30165",
    "OBJECT_ID": "23107A",
    "EPOCH": "2025-11-11T05:57:30.372480",
    "MEAN_MOTION": 15.02524325,
    "ECCENTRICITY": 0.0001503,
    "INCLINATION": 43.0045,
    "RA_OF_ASC_NODE": 262.8118,
    "ARG_OF_PERICENTER": 266.3088,
    "MEAN_ANOMALY": 93.7582,
    "EPHEMERIS_TYPE": 0,
    "CLASSIFICATION_TYPE": "U",
    "NORAD_CAT_ID": 57457,
    "ELEMENT_SET_NO": 999,
    "REV_AT_EPOCH": 12728,
    "BSTAR": 0.00022883000000000002,
    "MEAN_MOTION_DOT": 2.888e-05,
    "MEAN_MOTION_DDOT": 0.0,
    "TLE_LINE1": "1 57457U 23107A   25315.24826820  .00002888  00000+0  22883-3 0  9990",
    "TLE_LINE2": "2 57457  43.0045 262.8118 0001503 266.3088  93.7582 15.02524325127289",
    "COMMENT": "Grouped by shell and plane from TLE"
  },
  {
    "OBJECT_NAME": "STARLINK-30140",
    "OBJECT_ID": "23107B",
    "EPOCH": "2025-11-11T05:52:42.396096",
    "MEAN_MOTION": 15.02526635,
    "ECCENTRICITY": 7.74e-05,
    "INCLINATION": 43.0041,
    "RA_OF_ASC_NODE": 262.787,
    "ARG_OF_PERICENTER": 275.636,
    "MEAN_ANOMALY": 84.4394,
    "EPHEMERIS_TYPE": 0,
    "CLASSIFICATION_TYPE": "U",
    "NORAD_CAT_ID": 57458,
    "ELEMENT_SET_NO": 999,
    "REV_AT_EPOCH": 12729,
    "BSTAR": 0.00040366,
    "MEAN_MOTION_DOT": 5.252e-05,
    "MEAN_MOTION_DDOT": 0.0,
    "TLE_LINE1": "1 57458U 23107B   25315.24493514  .00005252  00000+0  40366-3 0  9995",
    "TLE_LINE2": "2 57458  43.0041 262.7870 0000774 275.6360  84.4394 15.02526635127290",
    "COMMENT": "Grouped by shell and plane from TLE"
  },
  {
    "OBJECT_NAME": "STARLINK-30185",
    "OBJECT_ID": "23107C",
    "EPOCH": "2025-11-11T08:00:03.000384",
    "MEAN_MOTION": 15.17692036,
    "ECCENTRICITY": 0.0002133,
    "INCLINATION": 42.9995,
    "RA_OF_ASC_NODE": 260.9295,
    "ARG_OF_PERICENTER": 276.2103,
    "MEAN_ANOMALY": 68.4858,
    "EPHEMERIS_TYPE": 0,
    "CLASSIFICATION_TYPE": "U",
    "NORAD_CAT_ID": 57459,
    "ELEMENT_SET_NO": 999,
    "REV_AT_EPOCH": 580,
    "BSTAR": 0.0070287,
    "MEAN_MOTION_DOT": 0.00147038,
    "MEAN_MOTION_DDOT": 0.0,
    "TLE_LINE1": "1 57459U 23107C   25315.33336806  .00147038  00000+0  70287-2 0  9999",
    "TLE_LINE2": "2 57459  42.9995 260.9295 0002133 276.2103  68.4858 15.17692036  5805",
    "COMMENT": "Grouped by shell and plane from TLE"
  },
  {
    "OBJECT_NAME": "STARLINK-30077",
    "OBJECT_ID": "23107D",
    "EPOCH": "2025-11-11T05:43:06.712896",
    "MEAN_MOTION": 15.02535865,
    "ECCENTRICITY": 0.0001024,
    "INCLINATION": 43.0024,
    "RA_OF_ASC_NODE": 262.737,
    "ARG_OF_PERICENTER": 270.2075,
    "MEAN_ANOMALY": 89.865,
    "EPHEMERIS_TYPE": 0,
    "CLASSIFICATION_TYPE": "U",
    "NORAD_CAT_ID": 57460,
    "ELEMENT_SET_NO": 999,
    "REV_AT_EPOCH": 12729,
    "BSTAR": 4.6444000000000005e-05,
    "MEAN_MOTION_DOT": 4.24e-06,
    "MEAN_MOTION_DDOT": 0.0,
    "TLE_LINE1": "1 57460U 23107D   25315.23827214  .00000424  00000+0  46444-4 0  9995",
    "TLE_LINE2": "2 57460  43.0024 262.7370 0001024 270.2075  89.8650 15.02535865127291",
    "COMMENT": "Grouped by shell and plane from TLE"
  },
  {
    "OBJECT_NAME": "STARLINK-30229",
    "OBJECT_ID": "23107E",
    "EPOCH": "2025-11-11T06:02:17.707776",
    "MEAN_MOTION": 15.02552169,
    "ECCENTRICITY": 0.0001429,
    "INCLINATION": 43.0034,
    "RA_OF_ASC_NODE": 262.833,
    "ARG_OF_PERICENTER": 268.5247,
    "MEAN_ANOMALY": 91.5432,
    "EPHEMERIS_TYPE": 0,
    "CLASSIFICATION_TYPE": "U",
    "NORAD_CAT_ID": 57461,
    "ELEMENT_SET_NO": 999,
    "REV_AT_EPOCH": 12729,
    "BSTAR": 0.0,
    "MEAN_MOTION_DOT": -2.132e-05,
    "MEAN_MOTION_DDOT": 0.0,
    "TLE_LINE1": "1 57461U 23107E   25315.25159384 -.00002132  00000+0 -14271-3 0  9996",
    "TLE_LINE2": "2 57461  43.0034 262.8330 0001429 268.5247  91.5432 15.02552169127294",
    "COMMENT": "Grouped by shell and plane from TLE"
  },
  {
    "OBJECT_NAME": "STARLINK-30088",
    "OBJECT_ID": "23107F",
    "EPOCH": "2025-11-11T05:38:19.382784",
    "MEAN_MOTION": 15.02533449,
    "ECCENTRICITY": 0.0001221,
    "INCLINATION": 43.0053,
    "RA_OF_ASC_NODE": 262.7063,
    "ARG_OF_PERICENTER": 272.1535,
    "MEAN_ANOMALY": 87.9168,
    "EPHEMERIS_TYPE": 0,
    "CLASSIFICATION_TYPE": "U",
    "NORAD_CAT_ID": 57462,
    "ELEMENT_SET_NO": 999,
    "REV_AT_EPOCH": 12729,
    "BSTAR": 3.336e-05,
    "MEAN_MOTION_DOT": 2.47e-06,
    "MEAN_MOTION_DDOT": 0.0,
    "TLE_LINE1": "1 57462U 23107F   25315.23494656  .00000247  00000+0  33360-4 0  9993",
    "TLE_LINE2": "2 57462  43.0053 262.7063 0001221 272.1535  87.9168 15.02533449127294",
    "COMMENT": "Grouped by shell and plane from TLE"
  },
  {
    "OBJECT_NAME": "STARLINK-30091",
    "OBJECT_ID": "23107G",
    "EPOCH": "2025-11-11T05:28:43.939776",
    "MEAN_MOTION": 15.0255633,
    "ECCENTRICITY": 0.0001289,
    "INCLINATION": 43.0029,
    "RA_OF_ASC_NODE": 262.6618,
    "ARG_OF_PERICENTER": 279.2585,
    "MEAN_ANOMALY": 80.8112,
    "EPHEMERIS_TYPE": 0,
    "CLASSIFICATION_TYPE": "U",
    "NORAD_CAT_ID": 57463,
    "ELEMENT_SET_NO": 999,
    "REV_AT_EPOCH": 12729,
    "BSTAR": 0.0,
    "MEAN_MOTION_DOT": -1.275e-05,
    "MEAN_MOTION_DDOT": 0.0,
    "TLE_LINE1": "1 57463U 23107G   25315.22828634 -.00001275  00000+0 -79306-4 0  9994",
    "TLE_LINE2": "2 57463  43.0029 262.6618 0001289 279.2585  80.8112 15.02556330127295",
    "COMMENT": "Grouped by shell and plane from TLE"
  },
  {
    "OBJECT_NAME": "STARLINK-30116",
    "OBJECT_ID": "23107J",
    "EPOCH": "2025-11-11T05:30:19.823904",
    "MEAN_MOTION": 15.02535142,
    "ECCENTRICITY": 0.0001213,
    "INCLINATION": 43.0049,
    "RA_OF_ASC_NODE": 262.6695,
    "ARG_OF_PERICENTER": 267.9591,
    "MEAN_ANOMALY": 92.1113,
    "EPHEMERIS_TYPE": 0,
    "CLASSIFICATION_TYPE": "U",
    "NORAD_CAT_ID": 57465,
    "ELEMENT_SET_NO": 999,
    "REV_AT_EPOCH": 12729,
    "BSTAR": 2.8920000000000004e-05,
    "MEAN_MOTION_DOT": 1.87e-06,
    "MEAN_MOTION_DDOT": 0.0,
    "TLE_LINE1": "1 57465U 23107J   25315.22939611  .00000187  00000+0  28920-4 0  9999",
    "TLE_LINE2": "2 57465  43.0049 262.6695 0001213 267.9591  92.1113 15.02535142127297",
    "COMMENT": "Grouped by shell and plane from TLE"
  },
  {
    "OBJECT_NAME": "STARLINK-30092",
    "OBJECT_ID": "23107L",
    "EPOCH": "2025-11-11T05:19:08.522688",
    "MEAN_MOTION": 15.02542374,
    "ECCENTRICITY": 0.0001271,
    "INCLINATION": 43.0047,
    "RA_OF_ASC_NODE": 262.6082,
    "ARG_OF_PERICENTER": 265.3432,
    "MEAN_ANOMALY": 94.7265,
    "EPHEMERIS_TYPE": 0,
    "CLASSIFICATION_TYPE": "U",
    "NORAD_CAT_ID": 57467,
    "ELEMENT_SET_NO": 999,
    "REV_AT_EPOCH": 12729,
    "BSTAR": 0.0,
    "MEAN_MOTION_DOT": -7.75e-06,
    "MEAN_MOTION_DDOT": 0.0,
    "TLE_LINE1": "1 57467U 23107L   25315.22162642 -.00000775  00000+0 -42313-4 0  9990",
    "TLE_LINE2": "2 57467  43.0047 262.6082 0001271 265.3432  94.7265 15.02542374127298",
    "COMMENT": "Grouped by shell and plane from TLE"
  }
]